ORBCOMM FM33            
1 25983U 99065D   24269.43941085  .00003128  00000+0  10617-2 0  9993
2 25983  45.0276 176.3446 0007569 166.8708 193.2339 14.38417619297920
ORBCOMM FM36            
1 25984U 99065E   24269.26100232  .00003694  00000+0  12968-2 0  9995
2 25984  45.0384 265.0082 0003471   8.0573 352.0330 14.36412983296302
ORBCOMM FM35            
1 25985U 99065F   24269.28293094  .00002216  00000+0  80779-3 0  9992
2 25985  45.0393 268.0997 0001977 188.6174 171.4640 14.35767035296691
ORBCOMM FM34            
1 25986U 99065G   24269.67272172  .00002957  00000+0  10615-2 0  9993
2 25986  45.0379 266.8087 0001722  72.8954 287.2082 14.35770141296902
ORBCOMM FM38            
1 33060U 08031A   24269.87895149  .00005148  00000+0  72084-3 0  9999
2 33060  48.4395 132.7488 0004884 339.6603  20.4116 14.78768574875588
ORBCOMM FM41            
1 33061U 08031B   24269.83373678  .00004946  00000+0  69851-3 0  9997
2 33061  48.4432 139.9177 0004232 323.4951 133.2220 14.78473807875524
ORBCOMM FM29            
1 33062U 08031C   24269.43503519  .00005008  00000+0  70731-3 0  9992
2 33062  48.4383 149.8341 0006025 323.1407 207.1538 14.78445657874937
ORBCOMM FM39            
1 33063U 08031D   24268.99455586  .00004355  00000+0  63560-3 0  9999
2 33063  48.4394 173.5486 0007231 297.4133  62.6045 14.77294345874553
